PROX-1                  
1 44339U 19036A   26194.42673105  .00007059  00000+0  66459-3 0  9995
2 44339  23.9956 298.8895 0005861 348.2217  11.8145 14.91225199377397
NPSAT1                  
1 44340U 19036B   26193.96604415  .00003232  00000+0  43560-3 0  9990
2 44340  23.9995  49.8293 0007500 141.6661 218.4369 14.74810565376309
FORMOSAT 7-3            
1 44343U 19036E   26193.56034507  .00002776  00000+0  14580-3 0  9990
2 44343  24.0004   3.8842 0000410 187.8054 172.2443 15.09982287387083
FORMOSAT 7-1            
1 44349U 19036L   26194.38357466  .00001367  00000+0  91126-4 0  9996
2 44349  23.9965 215.7720 0001031 114.5702 245.4906 14.96608288388583
FORMOSAT 7-4            
1 44350U 19036M   26194.27281595  .00001503  00000+0  10282-3 0  9990
2 44350  23.9980 278.6291 0001326 124.2645 235.7981 14.96606289387981
FORMOSAT 7-2            
1 44351U 19036N   26194.49520067  .00001545  00000+0  10643-3 0  9992
2 44351  23.9994 331.4436 0000774 117.4388 242.6191 14.96605236387532
FORMOSAT 7-6            
1 44353U 19036Q   26194.09474807  .00001501  00000+0  10261-3 0  9998
2 44353  23.9964 154.9516 0001281  54.6388 305.4232 14.96608093385709
FORMOSAT 7-5            
1 44358U 19036V   26194.00549183  .00001554  00000+0  10724-3 0  9996
2 44358  23.9983  94.3052 0000464 121.0485 239.0061 14.96586768386220
METEOR-M2 2             
1 44387U 19038A   26194.58691758  .00000143  00000+0  81546-4 0  9993
2 44387  98.9153 182.2634 0000850   6.0081 354.1107 14.24372937365059
GLOBAL-4                
1 44499U 19054E   26193.98202454  .00044855  00000+0  41389-3 0  9997
2 44499  45.0059  87.2867 0005001 181.6116 178.4767 15.66910360384409
ZY-1 02D                
1 44528U 19059A   26194.62857206  .00000337  00000+0  13333-3 0  9993
2 44528  98.6720 256.1765 0003176 306.0513  54.0378 14.35269152358139
TAURUS-1 (JINNIUZUO 1)  
1 44530U 19059C   26194.61294154  .00004243  00000+0  67871-3 0  9998
2 44530  98.6425   1.0878 0007929 220.8695 139.1917 14.72360857362538
ZHUHAI-1 03B            
1 44536U 19060C   26194.63436412  .00017690  00000+0  25942-3 0  9996
2 44536  97.5545 353.8609 0008344 211.1465 148.9295 15.55567511380439
ZHUHAI-1 03D            
1 44538U 19060E   26194.55474200  .00019079  00000+0  32648-3 0  9990
2 44538  97.5391 345.6668 0007380 197.2650 162.8352 15.51274790380162
ZHUHAI-1 03E            
1 44539U 19060F   26194.66371639  .00009791  00000+0  23259-3 0  9993
2 44539  97.5634 345.5496 0004380 283.3851  76.6907 15.41888558379841
GAOFEN-7                
1 44703U 19072A   26194.63941543  .00002088  00000+0  95660-4 0  9991
2 44703  97.5709 255.3651 0017518 309.7905  50.1788 15.21507557371669
JILIN-1 GAOFEN 2A       
1 44777U 19075A   26194.58667356  .00008529  00000+0  21596-3 0  9998
2 44777  97.4969 279.0051 0005339   1.3228 358.8031 15.39986633368946
NINGXIA-1 1             
1 44779U 19076A   26194.61818668 -.00000099  00000+0  20220-4 0  9998
2 44779  45.0064  61.7358 0011594 282.6903  77.2635 14.02041777341564
NINGXIA-1 5             
1 44783U 19076E   26194.63056801  .00000108  00000+0  15446-3 0  9991
2 44783  45.0063  61.0130 0011425 273.6320  86.3208 14.02090660341488
KL-ALPHA A              
1 44785U 19077A   26194.61009186  .00000106  00000+0  13358-3 0  9994
2 44785  88.9237 219.6747 0012549  40.9288 319.2806 13.56045748329315
CARTOSAT-3              
1 44804U 19081A   26194.63429348  .00003383  00000+0  16310-3 0  9990
2 44804  97.4300 256.0741 0013244  65.9440 294.3179 15.19320267367481
JILIN-1 GAOFEN 2B       
1 44836U 19086A   26194.59662516  .00003296  00000+0  15157-3 0  9992
2 44836  97.4877 266.4250 0013119 221.6870 138.3366 15.20988569364506
TIANQIN 1 (CAS-6)       
1 44879U 19093A   26194.58512458  .00002244  00000+0  20747-3 0  9998
2 44879  97.7809 278.2353 0010084 333.4936  26.5768 14.95556319355991
ETRSS-1                 
1 44880U 19093B   26194.58417677  .00002364  00000+0  21581-3 0  9997
2 44880  97.7825 278.7170 0010198 333.4531  26.6166 14.96003503356009
TIANYAN 01              
1 44881U 19093C   26194.63283889  .00000960  00000+0  11429-3 0  9990
2 44881  97.7530 266.2190 0013727   6.8711 353.2691 14.86561637355343
TIANYAN 02              
1 44882U 19093D   26194.57453062  .00002590  00000+0  18424-3 0  9999
2 44882  97.7943 289.6234 0012087 294.9646  65.0324 15.05521216356584
CBERS 4A                
1 44883U 19093E   26194.63438875  .00001053  00000+0  14134-3 0  9999
2 44883  98.0189 262.0960 0001392 131.9024 228.2307 14.81445460354995
WEILAI 1R               
1 44884U 19093F   26194.52437690  .00002726  00000+0  21869-3 0  9993
2 44884  97.7893 284.4576 0015737 314.0450  45.9476 15.00859224356374
