OBJECT_NAME,OBJECT_ID,EPOCH,MEAN_MOTION,ECCENTRICITY,INCLINATION,RA_OF_ASC_NODE,ARG_OF_PERICENTER,MEAN_ANOMALY,EPHEMERIS_TYPE,CLASSIFICATION_TYPE,NORAD_CAT_ID,ELEMENT_SET_NO,REV_AT_EPOCH,BSTAR,MEAN_MOTION_DOT,MEAN_MOTION_DDOT
PROX-1,2019-036A,2026-07-13T10:14:29.562720,14.91225199,.00058614,23.9956,298.8895,348.2217,11.8145,0,U,44339,999,37739,.66459225E-3,.7059E-4,0
NPSAT1,2019-036B,2026-07-12T23:11:06.214560,14.74810565,.00075005,23.9995,49.8293,141.6661,218.4369,0,U,44340,999,37630,.43559585E-3,.3232E-4,0
FORMOSAT 7-3,2019-036E,2026-07-12T13:26:53.814048,15.09982287,.00004107,24.0004,3.8842,187.8054,172.2443,0,U,44343,999,38708,.14580373E-3,.2776E-4,0
FORMOSAT 7-1,2019-036L,2026-07-13T09:12:20.850624,14.96608288,.0001031,23.9965,215.7720,114.5702,245.4906,0,U,44349,999,38858,.91126006E-4,.1367E-4,0
FORMOSAT 7-4,2019-036M,2026-07-13T06:32:51.298080,14.96606289,.0001326,23.9980,278.6291,124.2645,235.7981,0,U,44350,999,38798,.10282E-3,.1503E-4,0
FORMOSAT 7-2,2019-036N,2026-07-13T11:53:05.337888,14.96605236,.00007748,23.9994,331.4436,117.4388,242.6191,0,U,44351,999,38753,.10643192E-3,.1545E-4,0
FORMOSAT 7-6,2019-036Q,2026-07-13T02:16:26.233248,14.96608093,.00012811,23.9964,154.9516,54.6388,305.4232,0,U,44353,999,38570,.10260587E-3,.1501E-4,0
FORMOSAT 7-5,2019-036V,2026-07-13T00:07:54.494112,14.96586768,.00004649,23.9983,94.3052,121.0485,239.0061,0,U,44358,999,38622,.10723511E-3,.1554E-4,0
METEOR-M2 2,2019-038A,2026-07-13T14:05:09.678912,14.24372937,.00008505,98.9153,182.2634,6.0081,354.1107,0,U,44387,999,36505,.8154598E-4,.143E-5,0
GLOBAL-4,2019-054E,2026-07-12T23:34:06.920256,15.66910360,.00050015,45.0059,87.2867,181.6116,178.4767,0,U,44499,999,38440,.41388718E-3,.44855E-3,0
ZY-1 02D,2019-059A,2026-07-13T15:05:08.625984,14.35269152,.00031761,98.6720,256.1765,306.0513,54.0378,0,U,44528,999,35813,.13332821E-3,.337E-5,0
TAURUS-1 (JINNIUZUO 1),2019-059C,2026-07-13T14:42:38.149056,14.72360857,.00079291,98.6425,1.0878,220.8695,139.1917,0,U,44530,999,36253,.67871207E-3,.4243E-4,0
ZHUHAI-1 03B,2019-060C,2026-07-13T15:13:29.059968,15.55567511,.00083449,97.5545,353.8609,211.1465,148.9295,0,U,44536,999,38043,.25942239E-3,.1769E-3,0
ZHUHAI-1 03D,2019-060E,2026-07-13T13:18:49.708800,15.51274790,.00073807,97.5391,345.6668,197.2650,162.8352,0,U,44538,999,38016,.32648316E-3,.19079E-3,0
ZHUHAI-1 03E,2019-060F,2026-07-13T15:55:45.096096,15.41888558,.00043802,97.5634,345.5496,283.3851,76.6907,0,U,44539,999,37984,.23259062E-3,.9791E-4,0
GAOFEN-7,2019-072A,2026-07-13T15:20:45.493152,15.21507557,.00175187,97.5709,255.3651,309.7905,50.1788,0,U,44703,999,37166,.95659866E-4,.2088E-4,0
JILIN-1 GAOFEN 2A,2019-075A,2026-07-13T14:04:48.595584,15.39986633,.00053397,97.4969,279.0051,1.3228,358.8031,0,U,44777,999,36894,.2159596E-3,.8529E-4,0
NINGXIA-1 1,2019-076A,2026-07-13T14:50:11.329152,14.02041777,.00115946,45.0064,61.7358,282.6903,77.2635,0,U,44779,999,34156,.20219918E-4,-.99E-6,0
NINGXIA-1 5,2019-076E,2026-07-13T15:08:01.076064,14.02090660,.00114253,45.0063,61.0130,273.6320,86.3208,0,U,44783,999,34148,.15446071E-3,.108E-5,0
KL-ALPHA A,2019-077A,2026-07-13T14:38:31.936704,13.56045748,.00125497,88.9237,219.6747,40.9288,319.2806,0,U,44785,999,32931,.13358481E-3,.106E-5,0
CARTOSAT-3,2019-081A,2026-07-13T15:13:22.956672,15.19320267,.00132441,97.4300,256.0741,65.9440,294.3179,0,U,44804,999,36748,.16309967E-3,.3383E-4,0
JILIN-1 GAOFEN 2B,2019-086A,2026-07-13T14:19:08.413824,15.20988569,.00131194,97.4877,266.4250,221.6870,138.3366,0,U,44836,999,36450,.15156767E-3,.3296E-4,0
TIANQIN 1 (CAS-6),2019-093A,2026-07-13T14:02:34.763712,14.95556319,.00100848,97.7809,278.2353,333.4936,26.5768,0,U,44879,999,35599,.20746899E-3,.2244E-4,0
ETRSS-1,2019-093B,2026-07-13T14:01:12.872928,14.96003503,.00101987,97.7825,278.7170,333.4531,26.6166,0,U,44880,999,35600,.21580975E-3,.2364E-4,0
TIANYAN 01,2019-093C,2026-07-13T15:11:17.280096,14.86561637,.00137277,97.7530,266.2190,6.8711,353.2691,0,U,44881,999,35534,.11428726E-3,.96E-5,0
TIANYAN 02,2019-093D,2026-07-13T13:47:19.445568,15.05521216,.00120873,97.7943,289.6234,294.9646,65.0324,0,U,44882,999,35658,.18423947E-3,.259E-4,0
CBERS 4A,2019-093E,2026-07-13T15:13:31.188000,14.81445460,.00013927,98.0189,262.0960,131.9024,228.2307,0,U,44883,999,35499,.14134172E-3,.1053E-4,0
WEILAI 1R,2019-093F,2026-07-13T12:35:06.164160,15.00859224,.00157372,97.7893,284.4576,314.0450,45.9476,0,U,44884,999,35637,.21868561E-3,.2726E-4,0
